[{"OBJECT_NAME":"FLOCK 4H-9","OBJECT_ID":"2025-276AY","EPOCH":"2026-03-09T17:17:17.232576","MEAN_MOTION":15.19128409,"ECCENTRICITY":0.00025136,"INCLINATION":97.4289,"RA_OF_ASC_NODE":144.0635,"ARG_OF_PERICENTER":350.5298,"MEAN_ANOMALY":9.5889,"EPHEMERIS_TYPE":0,"CLASSIFICATION_TYPE":"U","NORAD_CAT_ID":66712,"ELEMENT_SET_NO":999,"REV_AT_EPOCH":1532,"BSTAR":0.00033915834,"MEAN_MOTION_DOT":7.058e-5,"MEAN_MOTION_DDOT":0},{"OBJECT_NAME":"TRANSPORTER-15 OBJECT CJ","OBJECT_ID":"2025-276CJ","EPOCH":"2026-03-09T17:19:57.485568","MEAN_MOTION":15.21041958,"ECCENTRICITY":0.00108056,"INCLINATION":97.3697,"RA_OF_ASC_NODE":143.6602,"ARG_OF_PERICENTER":305.0415,"MEAN_ANOMALY":54.9807,"EPHEMERIS_TYPE":0,"CLASSIFICATION_TYPE":"U","NORAD_CAT_ID":66746,"ELEMENT_SET_NO":999,"REV_AT_EPOCH":1533,"BSTAR":0.00077607464,"MEAN_MOTION_DOT":0.00017213,"MEAN_MOTION_DDOT":0}]
