FLOCK 4H-9              
1 66712U 25276AY  26068.72033833  .00007058  00000+0  33916-3 0  9999
2 66712  97.4289 144.0635 0002514 350.5298   9.5889 15.19128409 15320
TRANSPORTER-15 OBJECT CJ
1 66746U 25276CJ  26068.72219311  .00017213  00000+0  77607-3 0  9992
2 66746  97.3697 143.6602 0010806 305.0415  54.9807 15.21041958 15338
